ELEKTRO-L 3             
1 44903U 19095A   26190.86907803 -.00000085  00000+0  00000+0 0  9995
2 44903   0.3116  82.1842 0001312  18.1787 216.2981  1.00271577 23933
SHIJIAN-20 (SJ-20)      
1 44910U 19097A   26190.79164002  .00000143  00000+0  00000+0 0  9997
2 44910   4.9730  74.7872 0015282  56.5678 126.2161  1.00266670 23926
TJS-5                   
1 44978U 20002A   26190.87529815 -.00000330  00000+0  00000+0 0  9994
2 44978   0.0491  72.9328 0007823 341.9464 295.5504  1.00271130 23932
GSAT-30                 
1 45026U 20005A   26190.79919167 -.00000152  00000+0  00000+0 0  9998
2 45026   0.0339  93.4788 0003192   0.2077 204.7589  1.00269580 23735
EUTELSAT KONNECT        
1 45027U 20005B   26190.78412881  .00000061  00000+0  00000+0 0  9997
2 45027   0.0665  93.4693 0001994 144.8059 338.9471  1.00269343 24565
JCSAT-17                
1 45245U 20013A   26190.80967838 -.00000303  00000+0  00000+0 0  9998
2 45245   5.3920 357.0694 0002900 125.3924 232.7863  1.00271419 23452
GEO-KOMPSAT-2B          
1 45246U 20013B   26190.80811837 -.00000332  00000+0  00000+0 0  9998
2 45246   0.0474 233.9789 0000906   4.9839 107.9486  1.00269037 23500
BEIDOU-3 G2             
1 45344U 20017A   26190.86985804 -.00000131  00000+0  00000+0 0  9990
2 45344   2.9069  47.6501 0002190  57.1776 216.1865  1.00270030 23485
AEHF-6 (USA 298)        
1 45465U 20022B   26190.81002505 -.00000283  00000+0  00000+0 0  9991
2 45465   2.5007 301.4173 0042029  15.5131  40.1716  1.00273477 23243
BEIDOU-3 G3             
1 45807U 20040A   26190.87590480 -.00000343  00000+0  00000+0 0  9998
2 45807   2.4993  67.4792 0001868 330.9416 315.2105  1.00266939 22295
APSTAR-6D               
1 45863U 20045A   26190.80924505 -.00000306  00000+0  00000+0 0  9996
2 45863   0.0402  85.5251 0001469  34.1803 233.3843  1.00268826 22080
KOREASAT 116            
1 45920U 20048A   26190.80577836 -.00000350  00000+0  00000+0 0  9993
2 45920   0.0058  17.9744 0000800  94.9461 221.1179  1.00269580 21869
EXPRESS 103             
1 45985U 20053A   26190.85580685 -.00000268  00000+0  00000+0 0  9999
2 45985   0.0258 287.3748 0001262 200.4597 204.5460  1.00271072 21874
EXPRESS 80              
1 45986U 20053B   26189.98082250  .00000000  00000+0  00000+0 0  9990
2 45986   0.0204  27.4740 0001803 174.3530 158.1653  1.00270025 21851
BSAT-4B                 
1 46112U 20056A   26190.80447836 -.00000338  00000+0  00000+0 0  9998
2 46112   0.0455 195.8587 0004171 293.3448 197.9779  1.00271116 21617
MEV-2                   
1 46113U 20056B   26190.78248213  .00000001  00000+0  00000+0 0  9990
2 46113   0.0500 258.4147 0000519 332.1315 337.8615  1.00271793 80940
GALAXY 30 (G-30)        
1 46114U 20056C   26190.75796686  .00000000  00000+0  00000+0 0  9999
2 46114   0.0242  29.5071 0001954  87.1468 318.9045  1.00271684 21511
GAOFEN-13 01            
1 46610U 20071A   26190.87746483 -.00000351  00000+0  00000+0 0  9990
2 46610   0.4536  86.2250 0045165 120.3773 155.3584  1.00268565 21146
TIANTONG-1 2            
1 46916U 20082A   26190.87876483 -.00000343  00000+0  00000+0 0  9996
2 46916   0.7641 330.7952 0001370 138.1083 260.2097  1.00269454 20885
LUCAS (JDRS-1)          
1 47202U 20089A   26190.80066500 -.00000223  00000+0  00000+0 0  9993
2 47202   0.0426 272.2721 0001703 187.4794 207.0216  1.00272299 20645
SXM-7                   
1 47240U 20096A   26190.66692169 -.00000193  00000+0  00000+0 0  9999
2 47240   0.0256  99.5778 0003484  23.0730 319.8841  1.00271634  7668
CMS-01                  
1 47256U 20099A   26190.79919167 -.00000152  00000+0  00000+0 0  9998
2 47256   0.0607  91.8991 0003383 176.7397  29.7948  1.00271742 20424
TURKSAT 5A              
1 47306U 21001A   26190.71752262  .00000167  00000+0  00000+0 0  9996
2 47306   0.0148  67.9118 0000268 186.7290 322.2451  1.00271446 20192
TIANTONG-1 3            
1 47321U 21003A   26190.87020471 -.00000142  00000+0  00000+0 0  9996
2 47321   1.7395 340.6554 0003209 136.4897 205.4812  1.00271501 20183
TJS-6                   
1 47613U 21010A   26190.81808509  .00000055  00000+0  00000+0 0  9990
2 47613   0.1952 262.3077 0003222 235.9988 262.4103  1.00271554 20038
SBIRS GEO-5 (USA 315)   
1 48618U 21042A   26190.85580684 -.00000253  00000+0  00000+0 0  9997
2 48618   5.0760 329.2835 0001474 150.3569 210.0482  1.00270577 18997
FENGYUN 4B              
1 48808U 21047A   26190.11364130 -.00000315  00000+0  00000+0 0  9997
2 48808   0.2044  79.5137 0005682 274.1360  78.9598  1.00265877 18782
SXM-8                   
1 48838U 21049A   26190.66692169 -.00000192  00000+0  00000+0 0  9991
2 48838   0.0161  37.5328 0005285 354.2090  50.8063  1.00270452 18813
TIANLIAN 1-05           
1 49011U 21063A   26190.78603549  .00000119  00000+0  00000+0 0  9996
2 49011   1.6490  80.5118 0000867  84.2706  62.7554  1.00271687 18301
STAR ONE D2             
1 49055U 21069A   26190.48367352  .00000000  00000+0  00000+0 0  9995
2 49055   0.0141  23.4255 0000163  14.2112 353.7867  1.00247248 18166
EUTELSAT QUANTUM        
1 49056U 21069B   26190.86344468  .00000138  00000+0  00000+0 0  9993
2 49056   0.0263 306.2300 0002081 159.3632 180.7450  1.00268900 18157
ZHONGXING-2E            
1 49062U 21071A   26190.58827921 -.00000278  00000+0  00000+0 0  9998
2 49062   0.0672 242.9971 0001448 259.9938  94.3686  1.00268374 18268
