OBJECT_NAME,OBJECT_ID,EPOCH,MEAN_MOTION,ECCENTRICITY,INCLINATION,RA_OF_ASC_NODE,ARG_OF_PERICENTER,MEAN_ANOMALY,EPHEMERIS_TYPE,CLASSIFICATION_TYPE,NORAD_CAT_ID,ELEMENT_SET_NO,REV_AT_EPOCH,BSTAR,MEAN_MOTION_DOT,MEAN_MOTION_DDOT
ELEKTRO-L 3,2019-095A,2026-07-09T20:51:28.341792,1.00271577,.0001312,0.3116,82.1842,18.1787,216.2981,0,U,44903,999,2393,0,-.85E-6,0
SHIJIAN-20 (SJ-20),2019-097A,2026-07-09T18:59:57.697728,1.00266670,.0015282,4.9730,74.7872,56.5678,126.2161,0,U,44910,999,2392,0,.143E-5,0
TJS-5,2020-002A,2026-07-09T21:00:25.760160,1.00271130,.0007823,0.0491,72.9328,341.9464,295.5504,0,U,44978,999,2393,0,-.33E-5,0
GSAT-30,2020-005A,2026-07-09T19:10:50.160288,1.00269580,.0003192,0.0339,93.4788,0.2077,204.7589,0,U,45026,999,2373,0,-.152E-5,0
EUTELSAT KONNECT,2020-005B,2026-07-09T18:49:08.729184,1.00269343,.0001994,0.0665,93.4693,144.8059,338.9471,0,U,45027,999,2456,0,.61E-6,0
JCSAT-17,2020-013A,2026-07-09T19:25:56.212032,1.00271419,.00029,5.3920,357.0694,125.3924,232.7863,0,U,45245,999,2345,0,-.303E-5,0
GEO-KOMPSAT-2B,2020-013B,2026-07-09T19:23:41.427168,1.00269037,.0000906,0.0474,233.9789,4.9839,107.9486,0,U,45246,999,2350,0,-.332E-5,0
BEIDOU-3 G2,2020-017A,2026-07-09T20:52:35.734656,1.00270030,.000219,2.9069,47.6501,57.1776,216.1865,0,U,45344,999,2348,0,-.131E-5,0
AEHF-6 (USA 298),2020-022B,2026-07-09T19:26:26.164320,1.00273477,.0042029,2.5007,301.4173,15.5131,40.1716,0,U,45465,999,2324,0,-.283E-5,0
BEIDOU-3 G3,2020-040A,2026-07-09T21:01:18.174720,1.00266939,.0001868,2.4993,67.4792,330.9416,315.2105,0,U,45807,999,2229,0,-.343E-5,0
APSTAR-6D,2020-045A,2026-07-09T19:25:18.772320,1.00268826,.0001469,0.0402,85.5251,34.1803,233.3843,0,U,45863,999,2208,0,-.306E-5,0
KOREASAT 116,2020-048A,2026-07-09T19:20:19.250304,1.00269580,.00008,0.0058,17.9744,94.9461,221.1179,0,U,45920,999,2186,0,-.35E-5,0
EXPRESS 103,2020-053A,2026-07-09T20:32:21.711840,1.00271072,.0001262,0.0258,287.3748,200.4597,204.5460,0,U,45985,999,2187,0,-.268E-5,0
EXPRESS 80,2020-053B,2026-07-08T23:32:23.064000,1.00270025,.0001803,0.0204,27.4740,174.3530,158.1653,0,U,45986,999,2185,0,0,0
BSAT-4B,2020-056A,2026-07-09T19:18:26.930304,1.00271116,.0004171,0.0455,195.8587,293.3448,197.9779,0,U,46112,999,2161,0,-.338E-5,0
MEV-2,2020-056B,2026-07-09T18:46:46.456032,1.00271793,.0000519,0.0500,258.4147,332.1315,337.8615,0,U,46113,999,8094,0,.1E-7,0
GALAXY 30 (G-30),2020-056C,2026-07-09T18:11:28.336704,1.00271684,.0001954,0.0242,29.5071,87.1468,318.9045,0,U,46114,999,2151,0,0,0
GAOFEN-13 01,2020-071A,2026-07-09T21:03:32.961312,1.00268565,.0045165,0.4536,86.2250,120.3773,155.3584,0,U,46610,999,2114,0,-.351E-5,0
TIANTONG-1 2,2020-082A,2026-07-09T21:05:25.281312,1.00269454,.000137,0.7641,330.7952,138.1083,260.2097,0,U,46916,999,2088,0,-.343E-5,0
LUCAS (JDRS-1),2020-089A,2026-07-09T19:12:57.456000,1.00272299,.0001703,0.0426,272.2721,187.4794,207.0216,0,U,47202,999,2064,0,-.223E-5,0
SXM-7,2020-096A,2026-07-09T16:00:22.034016,1.00271634,.0003484,0.0256,99.5778,23.0730,319.8841,0,U,47240,999,766,0,-.193E-5,0
CMS-01,2020-099A,2026-07-09T19:10:50.160288,1.00271742,.0003383,0.0607,91.8991,176.7397,29.7948,0,U,47256,999,2042,0,-.152E-5,0
TURKSAT 5A,2021-001A,2026-07-09T17:13:13.954368,1.00271446,.0000268,0.0148,67.9118,186.7290,322.2451,0,U,47306,999,2019,0,.167E-5,0
TIANTONG-1 3,2021-003A,2026-07-09T20:53:05.686944,1.00271501,.0003209,1.7395,340.6554,136.4897,205.4812,0,U,47321,999,2018,0,-.142E-5,0
TJS-6,2021-010A,2026-07-09T19:38:02.551776,1.00271554,.0003222,0.1952,262.3077,235.9988,262.4103,0,U,47613,999,2003,0,.55E-6,0
SBIRS GEO-5 (USA 315),2021-042A,2026-07-09T20:32:21.710976,1.00270577,.0001474,5.0760,329.2835,150.3569,210.0482,0,U,48618,999,1899,0,-.253E-5,0
FENGYUN 4B,2021-047A,2026-07-09T02:43:38.608320,1.00265877,.00056821,0.2044,79.5137,274.1360,78.9598,0,U,48808,999,1878,0,-.315E-5,0
SXM-8,2021-049A,2026-07-09T16:00:22.034016,1.00270452,.0005285,0.0161,37.5328,354.2090,50.8063,0,U,48838,999,1881,0,-.192E-5,0
TIANLIAN 1-05,2021-063A,2026-07-09T18:51:53.466336,1.00271687,.0000867,1.6490,80.5118,84.2706,62.7554,0,U,49011,999,1830,0,.119E-5,0
STAR ONE D2,2021-069A,2026-07-09T11:36:29.392128,1.00247248,.0000163,0.0141,23.4255,14.2112,353.7867,0,U,49055,999,1816,0,0,0
EUTELSAT QUANTUM,2021-069B,2026-07-09T20:43:21.620352,1.00268900,.0002081,0.0263,306.2300,159.3632,180.7450,0,U,49056,999,1815,0,.138E-5,0
ZHONGXING-2E,2021-071A,2026-07-09T14:07:07.323744,1.00268374,.0001448,0.0672,242.9971,259.9938,94.3686,0,U,49062,999,1826,0,-.278E-5,0
